{
  "type": "FeatureCollection",
  "features": [
    {
      "type": "Feature",
      "properties": {
        "norad_id": 41599,
        "name": "CARTOSAT-2C",
        "group": "resource",
        "lat": 61.32821295610254,
        "lon": 38.96389496163189,
        "alt_km": 495.573863355924,
        "timestamp": "2025-12-21T16:47:54.386156+00:00",
        "meta_object_name": "CARTOSAT-2C",
        "meta_object_id": "2016-040A",
        "meta_epoch": "2025-12-21T11:47:01.125600",
        "meta_mean_motion": 15.19191948,
        "meta_eccentricity": 0.0011045,
        "meta_inclination": 97.4758,
        "meta_ra_of_asc_node": 52.6514,
        "meta_arg_of_pericenter": 35.7676,
        "meta_mean_anomaly": 324.4296,
        "meta_ephemeris_type": 0,
        "meta_classification_type": "U",
        "meta_norad_cat_id": 41599,
        "meta_element_set_no": 999,
        "meta_rev_at_epoch": 52673,
        "meta_bstar": 0.00031609,
        "meta_mean_motion_dot": 6.593e-05,
        "meta_mean_motion_ddot": 0,
        "tle_line1": "1 41599U 16040A   25355.49098525  .00006593  00000+0  31609-3 0  9995",
        "tle_line2": "2 41599  97.4758  52.6514 0011045  35.7676 324.4296 15.19191948526739"
      },
      "geometry": {
        "type": "Point",
        "coordinates": [
          38.96389496163189,
          61.32821295610254
        ]
      }
    },
    {
      "type": "Feature",
      "properties": {
        "norad_id": 41601,
        "name": "SKYSAT-C1",
        "group": "resource",
        "lat": -10.610803642389492,
        "lon": -149.10666003932653,
        "alt_km": 472.8984038232984,
        "timestamp": "2025-12-21T16:47:54.386166+00:00",
        "meta_object_name": "SKYSAT-C1",
        "meta_object_id": "2016-040C",
        "meta_epoch": "2025-12-21T01:52:04.162944",
        "meta_mean_motion": 15.32727522,
        "meta_eccentricity": 0.00014088,
        "meta_inclination": 96.9809,
        "meta_ra_of_asc_node": 31.6216,
        "meta_arg_of_pericenter": 345.105,
        "meta_mean_anomaly": 15.0151,
        "meta_ephemeris_type": 0,
        "meta_classification_type": "U",
        "meta_norad_cat_id": 41601,
        "meta_element_set_no": 999,
        "meta_rev_at_epoch": 53055,
        "meta_bstar": 0.00019483176,
        "meta_mean_motion_dot": 6.086e-05,
        "meta_mean_motion_ddot": 0,
        "tle_line1": "1 41601U 16040C   25355.07782596  .00006086  00000+0  19483-3 0  9994",
        "tle_line2": "2 41601  96.9809  31.6216 0001408 345.1050  15.0151 15.32727522530552"
      },
      "geometry": {
        "type": "Point",
        "coordinates": [
          -149.10666003932653,
          -10.610803642389492
        ]
      }
    },
    {
      "type": "Feature",
      "properties": {
        "norad_id": 41603,
        "name": "LAPAN-A3",
        "group": "resource",
        "lat": -59.71163323224448,
        "lon": 5.327954089697286,
        "alt_km": 472.09809963755833,
        "timestamp": "2025-12-21T16:47:54.386177+00:00",
        "meta_object_name": "LAPAN-A3",
        "meta_object_id": "2016-040E",
        "meta_epoch": "2025-12-21T12:21:28.120320",
        "meta_mean_motion": 15.31617339,
        "meta_eccentricity": 0.0008863,
        "meta_inclination": 97.1426,
        "meta_ra_of_asc_node": 352.7519,
        "meta_arg_of_pericenter": 298.091,
        "meta_mean_anomaly": 61.9436,
        "meta_ephemeris_type": 0,
        "meta_classification_type": "U",
        "meta_norad_cat_id": 41603,
        "meta_element_set_no": 999,
        "meta_rev_at_epoch": 52760,
        "meta_bstar": 0.000114,
        "meta_mean_motion_dot": 3.409e-05,
        "meta_mean_motion_ddot": 0,
        "tle_line1": "1 41603U 16040E   25355.51490880  .00003409  00000+0  11400-3 0  9994",
        "tle_line2": "2 41603  97.1426 352.7519 0008863 298.0910  61.9436 15.31617339527609"
      },
      "geometry": {
        "type": "Point",
        "coordinates": [
          5.327954089697286,
          -59.71163323224448
        ]
      }
    },
    {
      "type": "Feature",
      "properties": {
        "norad_id": 41604,
        "name": "BIROS",
        "group": "resource",
        "lat": -69.00852122991907,
        "lon": -171.3560313985004,
        "alt_km": 302.23778041388323,
        "timestamp": "2025-12-21T16:47:54.386187+00:00",
        "meta_object_name": "BIROS",
        "meta_object_id": "2016-040F",
        "meta_epoch": "2025-12-21T00:40:29.532576",
        "meta_mean_motion": 15.92820677,
        "meta_eccentricity": 0.00037085,
        "meta_inclination": 97.0689,
        "meta_ra_of_asc_node": 26.8121,
        "meta_arg_of_pericenter": 133.4081,
        "meta_mean_anomaly": 226.7504,
        "meta_ephemeris_type": 0,
        "meta_classification_type": "U",
        "meta_norad_cat_id": 41604,
        "meta_element_set_no": 999,
        "meta_rev_at_epoch": 53004,
        "meta_bstar": 0.00051492224,
        "meta_mean_motion_dot": 0.00176298,
        "meta_mean_motion_ddot": 1.357037e-05,
        "tle_line1": "1 41604U 16040F   25355.02811959  .00176298  13570-4  51492-3 0  9998",
        "tle_line2": "2 41604  97.0689  26.8121 0003708 133.4081 226.7504 15.92820677530049"
      },
      "geometry": {
        "type": "Point",
        "coordinates": [
          -171.3560313985004,
          -69.00852122991907
        ]
      }
    },
    {
      "type": "Feature",
      "properties": {
        "norad_id": 41727,
        "name": "GAOFEN-3",
        "group": "resource",
        "lat": 76.2199330595443,
        "lon": -35.91504211904723,
        "alt_km": 743.1480350762658,
        "timestamp": "2025-12-21T16:47:54.386201+00:00",
        "meta_object_name": "GAOFEN-3",
        "meta_object_id": "2016-049A",
        "meta_epoch": "2025-12-21T13:06:11.676672",
        "meta_mean_motion": 14.42216225,
        "meta_eccentricity": 0.0001245,
        "meta_inclination": 98.4031,
        "meta_ra_of_asc_node": 0.9979,
        "meta_arg_of_pericenter": 56.4242,
        "meta_mean_anomaly": 303.7066,
        "meta_ephemeris_type": 0,
        "meta_classification_type": "U",
        "meta_norad_cat_id": 41727,
        "meta_element_set_no": 999,
        "meta_rev_at_epoch": 49304,
        "meta_bstar": 6.827e-05,
        "meta_mean_motion_dot": 1.81e-06,
        "meta_mean_motion_ddot": 0,
        "tle_line1": "1 41727U 16049A   25355.54596848  .00000181  00000+0  68270-4 0  9996",
        "tle_line2": "2 41727  98.4031   0.9979 0001245  56.4242 303.7066 14.42216225493041"
      },
      "geometry": {
        "type": "Point",
        "coordinates": [
          -35.91504211904723,
          76.2199330595443
        ]
      }
    },
    {
      "type": "Feature",
      "properties": {
        "norad_id": 41771,
        "name": "SKYSAT-C4",
        "group": "resource",
        "lat": 76.42303878508567,
        "lon": -9.818704233464192,
        "alt_km": 430.5672413916582,
        "timestamp": "2025-12-21T16:47:54.386223+00:00",
        "meta_object_name": "SKYSAT-C4",
        "meta_object_id": "2016-058B",
        "meta_epoch": "2025-12-21T00:53:26.065536",
        "meta_mean_motion": 15.42468252,
        "meta_eccentricity": 0.00022314,
        "meta_inclination": 96.9361,
        "meta_ra_of_asc_node": 19.8219,
        "meta_arg_of_pericenter": 128.0072,
        "meta_mean_anomaly": 232.1378,
        "meta_ephemeris_type": 0,
        "meta_classification_type": "U",
        "meta_norad_cat_id": 41771,
        "meta_element_set_no": 999,
        "meta_rev_at_epoch": 51795,
        "meta_bstar": 0.00024326235,
        "meta_mean_motion_dot": 0.00010455,
        "meta_mean_motion_ddot": 0,
        "tle_line1": "1 41771U 16058B   25355.03710724  .00010455  00000+0  24326-3 0  9998",
        "tle_line2": "2 41771  96.9361  19.8219 0002231 128.0072 232.1378 15.42468252517956"
      },
      "geometry": {
        "type": "Point",
        "coordinates": [
          -9.818704233464192,
          76.42303878508567
        ]
      }
    },
    {
      "type": "Feature",
      "properties": {
        "norad_id": 41772,
        "name": "SKYSAT-C5",
        "group": "resource",
        "lat": 81.981246063297,
        "lon": -22.754681334400797,
        "alt_km": 458.8619248627274,
        "timestamp": "2025-12-21T16:47:54.386244+00:00",
        "meta_object_name": "SKYSAT-C5",
        "meta_object_id": "2016-058C",
        "meta_epoch": "2025-12-21T08:35:45.854304",
        "meta_mean_motion": 15.34018563,
        "meta_eccentricity": 0.0003791,
        "meta_inclination": 97.0744,
        "meta_ra_of_asc_node": 38.7499,
        "meta_arg_of_pericenter": 250.3825,
        "meta_mean_anomaly": 109.7009,
        "meta_ephemeris_type": 0,
        "meta_classification_type": "U",
        "meta_norad_cat_id": 41772,
        "meta_element_set_no": 999,
        "meta_rev_at_epoch": 51648,
        "meta_bstar": 0.00022523,
        "meta_mean_motion_dot": 7.34e-05,
        "meta_mean_motion_ddot": 0,
        "tle_line1": "1 41772U 16058C   25355.35816961  .00007340  00000+0  22523-3 0  9990",
        "tle_line2": "2 41772  97.0744  38.7499 0003791 250.3825 109.7009 15.34018563516485"
      },
      "geometry": {
        "type": "Point",
        "coordinates": [
          -22.754681334400797,
          81.981246063297
        ]
      }
    }
  ]
}